[{"OBJECT_NAME":"STARLINK-35523","OBJECT_ID":"2025-225A","EPOCH":"2026-03-09T13:01:55.333920","MEAN_MOTION":15.30185182,"ECCENTRICITY":0.00013123,"INCLINATION":53.1589,"RA_OF_ASC_NODE":166.5054,"ARG_OF_PERICENTER":65.0025,"MEAN_ANOMALY":295.1112,"EPHEMERIS_TYPE":0,"CLASSIFICATION_TYPE":"U","NORAD_CAT_ID":65910,"ELEMENT_SET_NO":999,"REV_AT_EPOCH":2438,"BSTAR":0.0013841258,"MEAN_MOTION_DOT":0.00040841,"MEAN_MOTION_DDOT":0},{"OBJECT_NAME":"COSMOS 249 DEB","OBJECT_ID":"1968-091AB","EPOCH":"2026-03-09T20:26:03.278112","MEAN_MOTION":13.65672942,"ECCENTRICITY":0.07422962,"INCLINATION":62.2701,"RA_OF_ASC_NODE":70.4053,"ARG_OF_PERICENTER":111.2229,"MEAN_ANOMALY":256.9701,"EPHEMERIS_TYPE":0,"CLASSIFICATION_TYPE":"U","NORAD_CAT_ID":3609,"ELEMENT_SET_NO":999,"REV_AT_EPOCH":69132,"BSTAR":0.00039134287,"MEAN_MOTION_DOT":2.2e-5,"MEAN_MOTION_DDOT":0}]
